{
  "type": "FeatureCollection",
  "features": [
    {
      "type": "Feature",
      "properties": {
        "norad_id": 66597,
        "name": "STARLINK-35820",
        "group": "last-30-days",
        "lat": -42.0844631024158,
        "lon": 108.94843869004195,
        "alt_km": 398.37834882650077,
        "timestamp": "2025-12-09T05:43:19.510121+00:00",
        "meta_object_name": "STARLINK-35820",
        "meta_object_id": "2025-270K",
        "meta_epoch": "2025-12-08T20:00:01.999008",
        "meta_mean_motion": 15.58886487,
        "meta_eccentricity": 0.0001223,
        "meta_inclination": 42.9988,
        "meta_ra_of_asc_node": 215.6091,
        "meta_arg_of_pericenter": 270.2868,
        "meta_mean_anomaly": 234.559,
        "meta_ephemeris_type": 0,
        "meta_classification_type": "U",
        "meta_norad_cat_id": 66597,
        "meta_element_set_no": 999,
        "meta_rev_at_epoch": 388,
        "meta_bstar": -0.029487,
        "meta_mean_motion_dot": -0.02091779,
        "meta_mean_motion_ddot": 0,
        "tle_line1": "1 66597U 25270K   25342.83335647 -.02091779  00000+0 -29487-1 0  9991",
        "tle_line2": "2 66597  42.9988 215.6091 0001223 270.2868 234.5590 15.58886487  3887"
      },
      "geometry": {
        "type": "Point",
        "coordinates": [
          108.94843869004195,
          -42.0844631024158
        ]
      }
    },
    {
      "type": "Feature",
      "properties": {
        "norad_id": 66598,
        "name": "STARLINK-35981",
        "group": "last-30-days",
        "lat": -42.37809287354608,
        "lon": 111.50142468182035,
        "alt_km": 398.39511351161946,
        "timestamp": "2025-12-09T05:43:19.510135+00:00",
        "meta_object_name": "STARLINK-35981",
        "meta_object_id": "2025-270L",
        "meta_epoch": "2025-12-08T20:00:01.999008",
        "meta_mean_motion": 15.58880434,
        "meta_eccentricity": 0.000118,
        "meta_inclination": 42.9988,
        "meta_ra_of_asc_node": 215.6039,
        "meta_arg_of_pericenter": 261.6206,
        "meta_mean_anomaly": 245.1423,
        "meta_ephemeris_type": 0,
        "meta_classification_type": "U",
        "meta_norad_cat_id": 66598,
        "meta_element_set_no": 999,
        "meta_rev_at_epoch": 361,
        "meta_bstar": -0.029326,
        "meta_mean_motion_dot": -0.02081186,
        "meta_mean_motion_ddot": 0,
        "tle_line1": "1 66598U 25270L   25342.83335647 -.02081186  00000+0 -29326-1 0  9995",
        "tle_line2": "2 66598  42.9988 215.6039 0001180 261.6206 245.1423 15.58880434  3612"
      },
      "geometry": {
        "type": "Point",
        "coordinates": [
          111.50142468182035,
          -42.37809287354608
        ]
      }
    },
    {
      "type": "Feature",
      "properties": {
        "norad_id": 66599,
        "name": "STARLINK-35930",
        "group": "last-30-days",
        "lat": -42.61416264859028,
        "lon": 114.07260854380121,
        "alt_km": 398.377958786471,
        "timestamp": "2025-12-09T05:43:19.510146+00:00",
        "meta_object_name": "STARLINK-35930",
        "meta_object_id": "2025-270M",
        "meta_epoch": "2025-12-08T20:00:01.999008",
        "meta_mean_motion": 15.58882608,
        "meta_eccentricity": 0.0001225,
        "meta_inclination": 42.999,
        "meta_ra_of_asc_node": 215.6001,
        "meta_arg_of_pericenter": 265.6948,
        "meta_mean_anomaly": 242.9857,
        "meta_ephemeris_type": 0,
        "meta_classification_type": "U",
        "meta_norad_cat_id": 66599,
        "meta_element_set_no": 999,
        "meta_rev_at_epoch": 377,
        "meta_bstar": -0.029402,
        "meta_mean_motion_dot": -0.02086141,
        "meta_mean_motion_ddot": 0,
        "tle_line1": "1 66599U 25270M   25342.83335647 -.02086141  00000+0 -29402-1 0  9997",
        "tle_line2": "2 66599  42.9990 215.6001 0001225 265.6948 242.9857 15.58882608  3770"
      },
      "geometry": {
        "type": "Point",
        "coordinates": [
          114.07260854380121,
          -42.61416264859028
        ]
      }
    },
    {
      "type": "Feature",
      "properties": {
        "norad_id": 66600,
        "name": "STARLINK-35980",
        "group": "last-30-days",
        "lat": -42.792188974696735,
        "lon": 116.66357754230454,
        "alt_km": 398.4459916515734,
        "timestamp": "2025-12-09T05:43:19.510156+00:00",
        "meta_object_name": "STARLINK-35980",
        "meta_object_id": "2025-270N",
        "meta_epoch": "2025-12-08T20:00:01.999008",
        "meta_mean_motion": 15.58879287,
        "meta_eccentricity": 0.0001142,
        "meta_inclination": 42.999,
        "meta_ra_of_asc_node": 215.5951,
        "meta_arg_of_pericenter": 262.7668,
        "meta_mean_anomaly": 247.8327,
        "meta_ephemeris_type": 0,
        "meta_classification_type": "U",
        "meta_norad_cat_id": 66600,
        "meta_element_set_no": 999,
        "meta_rev_at_epoch": 367,
        "meta_bstar": -0.029338,
        "meta_mean_motion_dot": -0.0208181,
        "meta_mean_motion_ddot": 0,
        "tle_line1": "1 66600U 25270N   25342.83335647 -.02081810  00000+0 -29338-1 0  9996",
        "tle_line2": "2 66600  42.9990 215.5951 0001142 262.7668 247.8327 15.58879287  3675"
      },
      "geometry": {
        "type": "Point",
        "coordinates": [
          116.66357754230454,
          -42.792188974696735
        ]
      }
    },
    {
      "type": "Feature",
      "properties": {
        "norad_id": 66601,
        "name": "STARLINK-35978",
        "group": "last-30-days",
        "lat": -42.91092168186014,
        "lon": 119.26548530104387,
        "alt_km": 398.4619408717663,
        "timestamp": "2025-12-09T05:43:19.510166+00:00",
        "meta_object_name": "STARLINK-35978",
        "meta_object_id": "2025-270P",
        "meta_epoch": "2025-12-08T20:00:01.999008",
        "meta_mean_motion": 15.58885597,
        "meta_eccentricity": 0.0001131,
        "meta_inclination": 42.9987,
        "meta_ra_of_asc_node": 215.5903,
        "meta_arg_of_pericenter": 265.475,
        "meta_mean_anomaly": 247.04,
        "meta_ephemeris_type": 0,
        "meta_classification_type": "U",
        "meta_norad_cat_id": 66601,
        "meta_element_set_no": 999,
        "meta_rev_at_epoch": 361,
        "meta_bstar": -0.029479,
        "meta_mean_motion_dot": -0.02091183,
        "meta_mean_motion_ddot": 0,
        "tle_line1": "1 66601U 25270P   25342.83335647 -.02091183  00000+0 -29479-1 0  9997",
        "tle_line2": "2 66601  42.9987 215.5903 0001131 265.4750 247.0400 15.58885597  3618"
      },
      "geometry": {
        "type": "Point",
        "coordinates": [
          119.26548530104387,
          -42.91092168186014
        ]
      }
    },
    {
      "type": "Feature",
      "properties": {
        "norad_id": 66602,
        "name": "STARLINK-36050",
        "group": "last-30-days",
        "lat": -42.97062021705616,
        "lon": 121.87433948765138,
        "alt_km": 398.4448189201403,
        "timestamp": "2025-12-09T05:43:19.510178+00:00",
        "meta_object_name": "STARLINK-36050",
        "meta_object_id": "2025-270Q",
        "meta_epoch": "2025-12-08T20:00:01.999008",
        "meta_mean_motion": 15.58883896,
        "meta_eccentricity": 0.0001159,
        "meta_inclination": 42.9987,
        "meta_ra_of_asc_node": 215.5852,
        "meta_arg_of_pericenter": 265.9489,
        "meta_mean_anomaly": 248.4841,
        "meta_ephemeris_type": 0,
        "meta_classification_type": "U",
        "meta_norad_cat_id": 66602,
        "meta_element_set_no": 999,
        "meta_rev_at_epoch": 367,
        "meta_bstar": -0.029444,
        "meta_mean_motion_dot": -0.02088865,
        "meta_mean_motion_ddot": 0,
        "tle_line1": "1 66602U 25270Q   25342.83335647 -.02088865  00000+0 -29444-1 0  9993",
        "tle_line2": "2 66602  42.9987 215.5852 0001159 265.9489 248.4841 15.58883896  3676"
      },
      "geometry": {
        "type": "Point",
        "coordinates": [
          121.87433948765138,
          -42.97062021705616
        ]
      }
    },
    {
      "type": "Feature",
      "properties": {
        "norad_id": 66603,
        "name": "STARLINK-36048",
        "group": "last-30-days",
        "lat": -42.970672907127415,
        "lon": 124.48522223513139,
        "alt_km": 398.4457907642163,
        "timestamp": "2025-12-09T05:43:19.510188+00:00",
        "meta_object_name": "STARLINK-36048",
        "meta_object_id": "2025-270R",
        "meta_epoch": "2025-12-08T20:00:01.999008",
        "meta_mean_motion": 15.58881091,
        "meta_eccentricity": 0.0001145,
        "meta_inclination": 42.9986,
        "meta_ra_of_asc_node": 215.5803,
        "meta_arg_of_pericenter": 265.9241,
        "meta_mean_anomaly": 250.4238,
        "meta_ephemeris_type": 0,
        "meta_classification_type": "U",
        "meta_norad_cat_id": 66603,
        "meta_element_set_no": 999,
        "meta_rev_at_epoch": 367,
        "meta_bstar": -0.029322,
        "meta_mean_motion_dot": -0.02080925,
        "meta_mean_motion_ddot": 0,
        "tle_line1": "1 66603U 25270R   25342.83335647 -.02080925  00000+0 -29322-1 0  9998",
        "tle_line2": "2 66603  42.9986 215.5803 0001145 265.9241 250.4238 15.58881091  3671"
      },
      "geometry": {
        "type": "Point",
        "coordinates": [
          124.48522223513139,
          -42.970672907127415
        ]
      }
    }
  ]
}